KUIPER-00044            
1 64505U 25134F   25226.58335648  .00016794  00000+0  12705-2 0  9997
2 64505  51.8841  83.7593 0012388 302.4157 160.8081 15.02367963  4525
KUIPER-00046            
1 64506U 25134G   25226.58335648  .00027957  00000+0  14855-2 0  9999
2 64506  51.8764  82.2021 0010085 312.3581 200.4957 15.15047568  5785
KUIPER-00047            
1 64507U 25134H   25226.30343060  .00025790  00000+0  76230-3 0  9996
2 64507  51.8627  81.4092 0010003 312.7089  47.3053 15.34719983  9204
KUIPER-00048            
1 64508U 25134J   25226.30121266  .00025889  00000+0  71675-3 0  9996
2 64508  51.8763  80.7242 0003211 291.1478  68.9165 15.36809963  9214
KUIPER-00049            
1 64509U 25134K   25226.59181351  .00031127  00000+0  88381-3 0  9993
2 64509  51.8697  79.6426 0006431 292.8402  67.1905 15.35908797  9255
KUIPER-00050            
1 64510U 25134L   25225.88472047  .00041790  00000+0  11963-2 0  9999
2 64510  51.8716  83.1587 0006703 286.2873  73.7375 15.35509722  9145
KUIPER-00051            
1 64511U 25134M   25226.32560934 -.00082866  00000+0 -24024-2 0  9996
2 64511  51.8742  80.8703 0004875 285.6303  74.4145 15.35203474  9214
KUIPER-00052            
1 64512U 25134N   25226.32540585  .00075553  00000+0  11221-2 0  9995
2 64512  51.8763  78.6727 0005076 318.6631  41.3979 15.54502770  9247
